ALOS-2                  
1 39766U 14029A   26092.05209440  .00001861  00000+0  25604-3 0  9995
2 39766  97.9196 190.3096 0001973  99.9401 260.2034 14.79465602640320
YAOGAN-29               
1 41038U 15069A   26092.34205479  .00000066  00000+0  14776-4 0  9990
2 41038  98.0107 120.8316 0000110 342.5631  17.5579 14.83019841559383
ASTRO-H (HITOMI)        
1 41337U 16012A   26091.63669912  .00003587  00000+0  20868-3 0  9997
2 41337  30.9992 208.4476 0009659 202.6657 157.3555 15.10152335555709
HXMT (HUIYAN)           
1 42758U 17034A   26092.27409590  .00006074  00000+0  30321-3 0  9994
2 42758  43.0136 245.5220 0031237  21.6388 338.5774 15.17763041486122
SAOCOM 1A               
1 43641U 18076A   26092.25417194 -.00000739  00000+0 -86319-4 0  9993
2 43641  97.8897 280.0941 0001380  87.1335 273.0036 14.82142761404859
H-2A R/B                
1 43682U 18084L   26092.16094733  .00029051  00000+0  66741-3 0  9999
2 43682  98.8695 314.5813 0023450 302.7525  57.1458 15.42371244409391
SAOCOM 1B               
1 46265U 20059A   26092.28542215  .00001054  00000+0  13898-3 0  9998
2 46265  97.8885 279.2220 0001477  85.0236 275.1146 14.82148052302249
CSS (TIANHE)            
1 48274U 21035A   26091.36022109  .00024066  00000+0  27286-3 0  9992
2 48274  41.4670  70.0996 0003721  85.9086 274.2179 15.61804306281152
COSMOS 2550             
1 48865U 21056A   26091.47039022  .00005639  00000+0  17705-3 0  9995
2 48865  67.1445 331.9738 0008328 269.3207  90.6993 15.33839536266954
CZ-2C R/B               
1 52794U 22058K   26091.58083286  .00043661  00000+0  59540-3 0  9997
2 52794  50.1881 200.3863 0041330 299.0451  60.6383 15.55999580213698
CZ-2C R/B               
1 54039U 22132E   26092.25286447  .00055662  00000+0  58268-3 0  9993
2 54039  97.2950  96.3241 0016524  12.9034 347.2644 15.64092964194052
GSLV R/B                
1 54149U 22138AN  26092.25276544  .00004401  00000+0  37878-3 0  9997
2 54149  87.3853 158.4731 0023876  69.1076 291.2708 14.96925687187454
